SHIYAN-24C 01           
1 58650U 23206A   26068.89348774  .00002076  00000+0  18089-3 0  9992
2 58650  97.3976  41.7846 0003675 132.3262 227.8273 14.97903598120444
SATELIOT_1              
1 60550U 24149CL  26068.75576468  .00003421  00000+0  29754-3 0  9995
2 60550  97.6798 146.3176 0007749  58.9869 301.2113 14.97604186 85183
